GORIZONT 15 [-]         
1 19017U 88028A   17345.59241185 -.00000173  00000-0  00000-0 0  9991
2 19017  15.9133 357.0271 0030229 116.4208   8.6339  0.97829266 89088
